COSMOS 2433 (720)       
1 32275C 07052A   20212.99979167 -.00000000  00000-0  00000-0 0  2126
2 32275  65.9951  27.4712 0002010 186.9638 128.8746  2.13104334    11
COSMOS 2432 (719)       
1 32276C 07052B   20212.99979167 -.00000000  00000-0  00000-0 0  2127
2 32276  66.0076  27.5608 0008221 340.4465 285.4970  2.13103620    18
COSMOS 2434 (721)       
1 32393C 07065A   20212.99979167 -.00000001  00000-0  00000-0 0  2122
2 32393  64.5583 264.9268 0001964 152.7164  50.8080  2.13102960    12
COSMOS 2436 (723)       
1 32395C 07065C   19331.99979167 -.00000004  00000-0  00000-0 0  3319
2 32395  64.6628 273.4180 0015428 335.5981 236.1653  2.13280743    12
COSMOS 2456 (730)       
1 36111C 09070A   20212.99979167  .00000001  00000-0  00000-0 0  2121
2 36111  64.2323 144.6009 0004871 313.5389  63.4491  2.13103021    11
COSMOS 2457 (733)       
1 36112C 09070B   19331.99979167  .00000011  00000-0  00000-0 0  3315
2 36112  64.1929 152.9203 0006907 146.4578 270.9332  2.13101641    11
COSMOS 2459 (731)       
1 36400C 10007A   20175.99979167 -.00000002  00000-0  00000-0 0  1752
2 36400  65.8848  27.6736 0025225 354.9284 231.1448  2.13105240    18
COSMOS 2460 (732)       
1 36402C 10007C   20176.99979167 -.00000002  00000-0  00000-0 0  1766
2 36402  65.8683  27.5686 0002295  87.0908 133.2447  2.13101357    15
COSMOS 2464 (736)       
1 37139C 10041C   20212.99979167 -.00000001  00000-0  00000-0 0  2123
2 37139  64.1581 264.3441 0024988   6.5795  60.2233  2.13100666    19
COSMOS 2476 (744)       
1 37867C 11064A   20212.99979167  .00000001  00000-0  00000-0 0  2126
2 37867  64.5310 145.6870 0020283 240.3525  37.4377  2.13101923    13
COSMOS 2477 (745)       
1 37868C 11064B   20212.99979167  .00000001  00000-0  00000-0 0  2127
2 37868  64.5391 145.7441 0017898 241.5248 214.7520  2.13101792    15
COSMOS 2475 (743)       
1 37869C 11064C   20212.99979167  .00000001  00000-0  00000-0 0  2128
2 37869  64.5465 145.7459 0022063 261.9395 151.7591  2.13102186    12
COSMOS 2485 (747)       
1 39155C 13019A   20212.99979167  .00000001  00000-0  00000-0 0  2120
2 39155  64.6985 145.9657 0020735 235.7672  86.5865  2.13102053    15
COSMOS 2492 (754)       
1 39620C 14012A   20212.99979167 -.00000000  00000-0  00000-0 0  2121
2 39620  65.7690  26.1417 0011255 331.9874  25.4100  2.13103279    16
COSMOS 2500 (755)       
1 40001C 14032A   20212.99979167 -.00000000  00000-0  00000-0 0  2128
2 40001  65.7097  26.0539 0006688 182.2639  35.5878  2.13102492    16
COSMOS 2501 (702)       
1 40315C 14075A   20212.99979167 -.00000001  00000-0  00000-0 0  2124
2 40315  63.8741 265.2736 0017943 210.6092 161.9599  2.13098618    18
COSMOS 2514 (751)       
1 41330C 16008A   20212.99979167 -.00000000  00000-0  00000-0 0  2129
2 41330  65.5121  25.9154 0009687 199.6285 200.7324  2.13102892    16
COSMOS 2516 (753)       
1 41554C 16032A   20212.99979167 -.00000001  00000-0  00000-0 0  2125
2 41554  64.0977 265.3559 0015009 221.0537  70.1835  2.13101628    13
COSMOS 2522 (752)       
1 42939C 17055A   20212.99979167 -.00000001  00000-0  00000-0 0  2129
2 42939  64.3310 265.5491 0009788 244.2801 273.5315  2.13101769    18
COSMOS 2527 (756)       
1 43508C 18053A   20212.99979167  .00000001  00000-0  00000-0 0  2120
2 43508  64.8630 145.8223 0007979 237.7042 311.9634  2.13102461    19
COSMOS 2529 (757)       
1 43687C 18086A   20212.99979167 -.00000001  00000-0  00000-0 0  2125
2 43687  64.5446 265.6803 0011853 264.8195 208.6141  2.13101944    10
COSMOS 2534 (758)       
1 44299C 19030A   20212.99979167 -.00000001  00000-0  00000-0 0  2125
2 44299  64.6146 265.5014 0014471 282.3250 326.1457  2.13101919    15
COSMOS 2544 (759)       
1 44850C 19088A   20212.99979167  .00000001  00000-0  00000-0 0  2120
2 44850  64.8473 145.6894 0012369 267.6417 326.0703  2.13102246    19
COSMOS 2545 (760)       
1 45358C 20018A   19320.99979167 -.00000008  00000-0  00000-0 0  3205
2 45358  65.8070  35.0079 0005134  75.6998 123.1059  2.13101688    16
